KUIPER-00079            
1 64826U 25151L   25301.64239849  .00005082  00000+0  69440-3 0  9996
2 64826  51.8984 164.1845 0012405 158.6052 201.5432 14.79948381 16953
KUIPER-00080            
1 64827U 25151M   25301.63783746 -.00003764  00000+0 -46501-3 0  9996
2 64827  51.8972 164.5071 0005713 175.0082 185.0939 14.79903379 15759
KUIPER-00082            
1 64828U 25151N   25301.66674769 -.00035917  00000+0 -44299-2 0  9990
2 64828  51.9001 151.9075 0005201 197.1918  52.1082 14.82453714  3255
KUIPER-00083            
1 64829U 25151P   25301.60947898  .00004686  00000+0  64312-3 0  9997
2 64829  51.8992 159.6388 0010788 163.0584 197.0740 14.79926461 17001
KUIPER-00084            
1 64830U 25151Q   25301.59874900  .00004156  00000+0  57338-3 0  9992
2 64830  51.8978 169.6742 0012158 136.8546 223.3372 14.79943644 15678
KUIPER-00085            
1 64831U 25151R   25301.66674769 -.00069480  00000+0 -88680-2 0  9998
2 64831  51.8998 151.9075 0008853 163.8295 277.7399 14.81341495  5403
KUIPER-00086            
1 64832U 25151S   25301.64069405  .00004421  00000+0  60879-3 0  9995
2 64832  51.9007 162.0017 0011478 157.8999 202.2460 14.79901457 15787
KUIPER-00087            
1 64833U 25151T   25301.66674769 -.00748451  00000+0 -51694-1 0  9996
2 64833  51.8870 146.4277 0004002 190.2048 237.6819 15.08071598  2907
